{"fetched_at":"2026-03-29T16:36:15Z","count":15609,"tles":[{"name":"STARLINK-11135 [DTC]","line1":"1 60048U 24112L   26087.64955956  .00003000  00000+0  29590-4 0  9991","line2":"2 60048  53.1595 172.4688 0001079 109.1412 250.9723 15.69728390103966","category":"Starlink"}]}