{
  "norad_id": 60048,
  "name": "STARLINK-11135 [DTC]",
  "history": [
    {
      "epoch": "2026-03-28T15:35:21.945984Z",
      "apogee_km": 360.40147250389964,
      "perigee_km": 358.94677908184076,
      "latitude_deg": 1.6160306330483807e-05,
      "longitude_deg": 112.56039949338661,
      "height_km": 360.82633195047987,
      "semi_major_axis_km": 6737.8111257928695,
      "eccentricity": 0.00010795,
      "inclination_deg": 53.1595,
      "raan_deg": 172.4688,
      "arg_perigee_deg": 109.1412,
      "mean_anomaly_deg": 250.9723,
      "mean_motion_rev_day": 15.6972839
    }
  ]
}